{"type":"FeatureCollection","features":[{"type":"Feature","properties":{"name":"Czechia","iso3":"CZE"},"geometry":{"type":"Polygon","coordinates":[[[14.810393,50.858447],[14.982062,50.859067],[14.996635,50.959216],[14.960978,50.992651],[15.003973,51.020685],[15.107946,50.981024],[15.144429,51.011564],[15.269796,50.952653],[15.25605,50.899892],[15.341006,50.83173],[15.356096,50.775455],[15.441775,50.800208],[15.684345,50.731426],[15.792245,50.742692],[15.848159,50.675151],[15.971459,50.678613],[15.998641,50.635567],[15.982001,50.603631],[16.086491,50.64678],[16.175477,50.624095],[16.232011,50.660888],[16.331644,50.644042],[16.425901,50.567561],[16.352624,50.492785],[16.211237,50.451289],[16.199559,50.406278],[16.2625,50.36442],[16.343736,50.36995],[16.371021,50.318377],[16.437787,50.297965],[16.535042,50.207738],[16.566668,50.142212],[16.660616,50.093016],[16.817712,50.186757],[16.960339,50.231974],[17.014806,50.218486],[16.865874,50.408449],[16.892953,50.432943],[17.187612,50.378476],[17.210866,50.336412],[17.337474,50.313002],[17.341711,50.259724],[17.388013,50.272643],[17.424187,50.240552],[17.469352,50.265563],[17.629549,50.262101],[17.707994,50.311039],[17.747578,50.217504],[17.589448,50.163244],[17.632753,50.106348],[17.731971,50.094876],[17.763287,50.025216],[17.839355,49.973643],[18.032418,50.00284],[18.002446,50.046765],[18.292454,49.907808],[18.368832,49.932044],[18.481797,49.896645],[18.559208,49.907187],[18.593831,49.852204],[18.566753,49.804765],[18.617706,49.713866],[18.788444,49.668597],[18.833196,49.510261],[18.732531,49.480288],[18.535643,49.481684],[18.514663,49.440601],[18.387642,49.389751],[18.385162,49.342261],[18.160576,49.2587],[18.075516,49.047188],[17.914079,49.010498],[17.878733,48.933552],[17.795533,48.920581],[17.727217,48.86291],[17.535084,48.812991],[17.167458,48.859758],[17.025348,48.746328],[16.945043,48.604166],[16.873006,48.718991],[16.675085,48.733926],[16.643149,48.778264],[16.519539,48.805601],[16.43572,48.794542],[16.358309,48.727259],[16.085354,48.742866],[15.818497,48.872315],[15.681347,48.858466],[15.27455,48.986727],[15.238067,48.95076],[15.141949,48.937479],[15.137401,48.993031],[15.003973,49.009774],[14.964595,48.971741],[14.939584,48.762813],[14.800367,48.776507],[14.703836,48.673103],[14.675621,48.576235],[14.458166,48.643182],[14.405353,48.586286],[14.315746,48.557916],[14.040827,48.601169],[14.006204,48.639513],[14.032146,48.667263],[13.991115,48.700181],[13.815725,48.76643],[13.724671,48.867303],[13.637389,48.893451],[13.608657,48.946161],[13.427273,48.959958],[13.299529,49.093645],[13.178503,49.118347],[12.999806,49.294925],[12.88467,49.339573],[12.777907,49.332545],[12.643548,49.42949],[12.622981,49.509847],[12.501955,49.619711],[12.496374,49.669993],[12.383616,49.742856],[12.452655,49.779702],[12.524072,49.904965],[12.462681,49.931269],[12.451312,49.980568],[12.24688,50.044957],[12.179184,50.117976],[12.17505,50.182623],[12.079552,50.242722],[12.110971,50.276622],[12.076141,50.315173],[12.149315,50.311711],[12.178047,50.268767],[12.239645,50.256572],[12.300417,50.160815],[12.336487,50.258587],[12.510223,50.38876],[12.691814,50.394651],[12.817388,50.44302],[12.952573,50.40416],[12.996602,50.433667],[13.009624,50.492681],[13.160106,50.497022],[13.232349,50.58203],[13.305627,50.575777],[13.368775,50.628332],[13.447944,50.597274],[13.556567,50.706725],[13.834535,50.723675],[13.959592,50.802068],[14.034936,50.802585],[14.232133,50.879376],[14.346545,50.880203],[14.381892,50.920872],[14.238335,50.982471],[14.287531,51.036834],[14.397808,51.013115],[14.482144,51.037196],[14.574335,50.975494],[14.550357,50.912087],[14.629215,50.920717],[14.613195,50.84558],[14.759233,50.810181],[14.810393,50.858447]]]}},{"type":"Feature","properties":{"name":"Germany","iso3":"DEU"},"geometry":{"type":"MultiPolygon","coordinates":[[[[13.815725,48.76643],[13.783582,48.71527],[13.816862,48.695582],[13.802392,48.611711],[13.716506,48.521691],[13.624367,48.565357],[13.454558,48.573445],[13.405569,48.376583],[13.274207,48.307104],[13.032775,48.263567],[12.862553,48.196646],[12.738943,48.113447],[12.991227,47.847106],[12.892009,47.723548],[13.019856,47.712929],[13.072049,47.659469],[13.037323,47.493045],[13.001873,47.466019],[12.77894,47.554825],[12.81315,47.611824],[12.761991,47.666859],[12.653057,47.675127],[12.49658,47.628903],[12.42413,47.69156],[12.238715,47.6789],[12.242229,47.732023],[12.1766,47.705823],[12.206779,47.645568],[12.173603,47.60508],[11.620458,47.589654],[11.551212,47.51369],[11.412616,47.506094],[11.365487,47.469326],[11.383884,47.444857],[11.237019,47.393956],[11.193818,47.428941],[10.979464,47.390545],[10.959827,47.432506],[10.858438,47.485165],[10.892234,47.514879],[10.858644,47.530666],[10.760769,47.513638],[10.583726,47.562473],[10.482543,47.532862],[10.429213,47.57702],[10.419601,47.493045],[10.451951,47.438759],[10.428283,47.396049],[10.305913,47.302178],[10.159876,47.271121],[10.209278,47.372484],[10.082878,47.359074],[10.053215,47.40486],[10.071819,47.439121],[10.022623,47.487955],[9.982625,47.481031],[9.945935,47.540769],[9.833487,47.534619],[9.782121,47.588414],[9.703986,47.531415],[9.612622,47.521881],[9.183398,47.670425],[8.881711,47.656136],[8.797581,47.720034],[8.71707,47.694558],[8.713142,47.757422],[8.644102,47.791012],[8.617437,47.757319],[8.601624,47.794603],[8.558216,47.801166],[8.463648,47.763907],[8.391301,47.665464],[8.458274,47.639884],[8.607309,47.656291],[8.574133,47.592445],[8.522353,47.621901],[8.354094,47.581024],[8.232965,47.621952],[8.042279,47.560561],[7.912157,47.560561],[7.898205,47.587846],[7.819657,47.595339],[7.76674,47.555961],[7.609747,47.564746],[7.659666,47.596579],[7.586028,47.584619],[7.511872,47.707322],[7.559001,47.882711],[7.621116,47.97144],[7.575744,48.053709],[7.578948,48.11448],[7.702454,48.311187],[7.75072,48.341366],[7.738318,48.406607],[7.813455,48.519468],[7.810252,48.615018],[7.970138,48.757283],[8.090338,48.807513],[8.200305,48.958563],[7.931898,49.034838],[7.634965,49.037783],[7.410483,49.168938],[7.274367,49.105014],[7.079857,49.142014],[7.042546,49.107598],[7.009474,49.181702],[6.914389,49.206662],[6.833464,49.209452],[6.821785,49.147751],[6.725563,49.155554],[6.702516,49.213638],[6.556426,49.326396],[6.577717,49.3558],[6.511674,49.424736],[6.402741,49.465457],[6.345307,49.455349],[6.350754,49.566588],[6.417933,49.639142],[6.402741,49.655782],[6.499686,49.712212],[6.502579,49.79567],[6.302592,49.834944],[6.161928,49.942482],[6.096403,50.048626],[6.121311,50.16159],[6.165132,50.181899],[6.146839,50.214042],[6.271792,50.267424],[6.285952,50.303856],[6.374525,50.315483],[6.337732,50.368089],[6.336905,50.481003],[6.207197,50.486325],[6.170817,50.517951],[6.160688,50.543583],[6.249055,50.614431],[6.159448,50.622389],[6.081003,50.713495],[6.01155,50.708534],[5.972999,50.781811],[6.009276,50.840464],[6.056715,50.852659],[6.063743,50.90754],[5.999871,50.929399],[6.003695,50.973737],[5.874607,50.965366],[5.858174,51.019342],[5.85249,51.042751],[5.937963,51.030943],[6.147252,51.152254],[6.126272,51.164578],[6.157071,51.179254],[6.060849,51.170909],[6.056612,51.211707],[6.207817,51.387666],[6.193348,51.509338],[6.086481,51.595534],[6.099193,51.644472],[6.008553,51.681188],[6.012067,51.715863],[5.939306,51.731882],[5.964111,51.776556],[5.931451,51.81565],[6.156141,51.842056],[6.092992,51.88531],[6.126995,51.89673],[6.344966,51.821102],[6.382483,51.827587],[6.378453,51.860117],[6.462892,51.848361],[6.743753,51.908331],[6.809176,51.979542],[6.675024,52.034809],[6.679881,52.060467],[7.02632,52.230637],[7.012471,52.284949],[7.048231,52.365074],[6.9733,52.451373],[6.90023,52.431917],[6.714814,52.461553],[6.671716,52.541678],[6.743753,52.559713],[6.703962,52.583071],[6.701792,52.619115],[6.737035,52.634695],[7.018465,52.625988],[7.061977,52.824012],[7.192821,52.998006],[7.171944,53.137714],[7.194591,53.245022],[7.254731,53.319525],[7.366547,53.302802],[7.302908,53.33275],[7.075206,53.337592],[7.023611,53.37641],[7.051443,53.5126],[7.141775,53.537177],[7.086762,53.586859],[7.226085,53.66649],[8.031423,53.708075],[8.052908,53.636298],[8.167979,53.553209],[8.058767,53.502021],[8.076996,53.468695],[8.205333,53.410712],[8.259451,53.412299],[8.315115,53.474921],[8.291515,53.529364],[8.231212,53.525214],[8.270681,53.61286],[8.552094,53.543606],[8.490001,53.486396],[8.504405,53.358059],[8.497569,53.474758],[8.565766,53.546698],[8.486095,53.700426],[8.587576,53.870429],[8.672699,53.891588],[8.860688,53.831],[9.210704,53.871975],[9.283376,53.86164],[9.582367,53.591295],[9.832042,53.543606],[9.583669,53.612454],[9.532237,53.711168],[9.435802,53.748684],[9.395193,53.831],[9.257823,53.885565],[8.98463,53.89704],[8.916026,53.937405],[8.833344,54.036444],[8.997244,54.030219],[9.018321,54.097886],[8.952891,54.150092],[8.860688,54.12519],[8.812836,54.180487],[8.83961,54.255561],[8.922048,54.274237],[8.963145,54.317613],[8.678477,54.269192],[8.623383,54.290107],[8.599864,54.33808],[8.695567,54.358588],[8.634776,54.365424],[8.648448,54.406399],[8.886078,54.417792],[9.004731,54.465888],[9.011567,54.506334],[8.878754,54.606513],[8.825857,54.598131],[8.853282,54.619289],[8.805431,54.687567],[8.688731,54.735297],[8.642751,54.844184],[8.660776,54.896311],[8.904138,54.897942],[9.194766,54.8504],[9.244066,54.801772],[9.451427,54.81037],[9.579926,54.866278],[9.583181,54.830268],[9.73463,54.807318],[9.823741,54.756741],[9.895356,54.769477],[9.891449,54.790269],[9.94752,54.779527],[10.01824,54.701239],[9.929454,54.673896],[10.039073,54.666815],[10.026866,54.559963],[9.965587,54.506171],[9.840099,54.475287],[10.143403,54.491848],[10.203868,54.461005],[10.141775,54.324408],[10.224376,54.413804],[10.31837,54.443305],[10.731293,54.310207],[10.935313,54.379543],[11.135509,54.385891],[11.06658,54.358588],[11.094493,54.283515],[11.06658,54.183905],[10.892833,54.102525],[10.805431,54.094875],[10.752615,54.050116],[10.780447,54.009955],[10.875499,53.995429],[10.90211,53.961371],[11.175059,54.018012],[11.245372,53.97842],[11.242931,53.945217],[11.334158,53.961371],[11.457693,53.906155],[11.519054,54.036444],[11.573497,54.039049],[11.689708,54.155219],[12.088145,54.194078],[12.091645,54.114],[12.115001,54.097886],[12.095063,54.145697],[12.142833,54.180487],[12.108897,54.18301],[12.342133,54.303941],[12.501964,54.473578],[12.533865,54.488267],[12.591482,54.451728],[12.921153,54.433498],[12.624197,54.422919],[12.527029,54.37226],[12.438487,54.387519],[12.362559,54.310207],[12.368826,54.269192],[12.412446,54.25141],[12.458181,54.255561],[12.41033,54.269192],[12.478689,54.331855],[12.680837,54.410875],[12.71754,54.413804],[12.692393,54.396186],[12.684093,54.37226],[12.7046,54.399604],[12.854666,54.357856],[13.0088,54.438056],[13.095551,54.37226],[13.076671,54.352525],[13.114919,54.280015],[13.288829,54.23428],[13.348888,54.180487],[13.321544,54.166815],[13.403494,54.173651],[13.382986,54.153144],[13.483572,54.091295],[13.507091,54.097886],[13.479259,54.12519],[13.711925,54.173651],[13.698253,54.153144],[13.808116,54.104682],[13.746104,54.036444],[13.906016,53.943061],[13.818533,53.877997],[13.817068,53.852932],[14.037446,53.755276],[14.264496,53.751614],[14.212738,53.708075],[14.263901,53.699976],[14.30417,53.508518],[14.359878,53.444077],[14.403286,53.27879],[14.44163,53.251841],[14.380651,53.189855],[14.38954,53.131668],[14.343341,53.048624],[14.14449,52.959921],[14.164954,52.895661],[14.123923,52.850651],[14.382202,52.738152],[14.644821,52.576921],[14.609061,52.517803],[14.632316,52.496745],[14.539815,52.421866],[14.545396,52.382153],[14.584153,52.291228],[14.712414,52.235908],[14.686369,52.121032],[14.761403,52.076667],[14.699082,51.992512],[14.687093,51.911897],[14.585807,51.803893],[14.732465,51.658347],[14.743937,51.606644],[14.710037,51.530241],[14.955397,51.435415],[14.960978,51.335291],[15.022059,51.23677],[14.955293,51.064042],[14.759233,50.810181],[14.613195,50.84558],[14.629215,50.920717],[14.550357,50.912087],[14.574335,50.975494],[14.482144,51.037196],[14.397808,51.013115],[14.287531,51.036834],[14.238335,50.982471],[14.381892,50.920872],[14.346545,50.880203],[14.232133,50.879376],[14.034936,50.802585],[13.959592,50.802068],[13.834535,50.723675],[13.556567,50.706725],[13.447944,50.597274],[13.368775,50.628332],[13.305627,50.575777],[13.232349,50.58203],[13.160106,50.497022],[13.009624,50.492681],[12.996602,50.433667],[12.952573,50.40416],[12.817388,50.44302],[12.691814,50.394651],[12.510223,50.38876],[12.336487,50.258587],[12.300417,50.160815],[12.239645,50.256572],[12.178047,50.268767],[12.149315,50.311711],[12.076141,50.315173],[12.110971,50.276622],[12.079552,50.242722],[12.17505,50.182623],[12.179184,50.117976],[12.24688,50.044957],[12.451312,49.980568],[12.462681,49.931269],[12.524072,49.904965],[12.452655,49.779702],[12.383616,49.742856],[12.496374,49.669993],[12.501955,49.619711],[12.622981,49.509847],[12.643548,49.42949],[12.777907,49.332545],[12.88467,49.339573],[12.999806,49.294925],[13.178503,49.118347],[13.299529,49.093645],[13.458899,48.945024],[13.51595,48.970242],[13.608657,48.946161],[13.637389,48.893451],[13.724671,48.867303],[13.815725,48.76643]]],[[[14.210053,53.938463],[14.175289,53.906478],[14.200819,53.878157],[13.840099,53.850287],[13.821788,53.865139],[13.931651,53.899319],[13.90447,53.995429],[13.972667,53.989244],[13.958995,53.940863],[13.987478,53.961412],[14.04835,53.940863],[14.05128,54.005072],[13.946056,54.066596],[13.89088,54.010159],[13.855968,54.002346],[13.863617,54.049994],[13.774099,54.022773],[13.814952,54.101264],[13.75294,54.153144],[13.814952,54.173651],[13.882498,54.102444],[14.016612,54.060004],[14.210053,53.938463]]],[[[6.798106,53.604438],[6.722423,53.590766],[6.756521,53.562893],[6.659516,53.599107],[6.798106,53.604438]]],[[[6.87379,53.672756],[7.047048,53.694159],[7.08546,53.686998],[6.87379,53.672756]]],[[[7.133149,53.708075],[7.232921,53.729438],[7.34669,53.723212],[7.173595,53.701402],[7.133149,53.708075]]],[[[7.366547,53.727973],[7.403494,53.736721],[7.435557,53.727973],[7.421235,53.721137],[7.366547,53.727973]]],[[[8.120128,53.721137],[8.152354,53.739163],[8.195974,53.727973],[8.15089,53.714301],[8.120128,53.721137]]],[[[7.472992,53.731879],[7.606619,53.7626],[7.627208,53.750922],[7.472992,53.731879]]],[[[7.660899,53.762112],[7.68629,53.780992],[7.812836,53.783149],[7.74822,53.760932],[7.660899,53.762112]]],[[[7.955577,53.782904],[7.854503,53.784573],[7.897634,53.796291],[7.955577,53.782904]]],[[[11.375662,53.981838],[11.426606,54.022935],[11.497895,54.022773],[11.457693,53.961371],[11.447032,53.997138],[11.423106,53.967719],[11.375662,53.981838]]],[[[11.539561,54.056952],[11.533946,54.084866],[11.615896,54.112128],[11.539561,54.056952]]],[[[8.963145,54.523668],[8.88795,54.468451],[8.812836,54.482123],[8.844493,54.519721],[8.963145,54.523668]]],[[[11.255626,54.478705],[11.31422,54.413804],[11.112641,54.415229],[11.098643,54.451646],[11.005707,54.468451],[11.033702,54.508857],[11.121267,54.535956],[11.255626,54.478705]]],[[[13.149669,54.577704],[13.118907,54.586412],[13.061371,54.468451],[13.102306,54.596096],[13.151052,54.604926],[13.149669,54.577704]]],[[[13.609548,54.413804],[13.766449,54.344916],[13.723155,54.278388],[13.690929,54.283515],[13.711925,54.303941],[13.651134,54.297187],[13.711925,54.331855],[13.616954,54.317613],[13.690929,54.351752],[13.499685,54.344916],[13.35963,54.275458],[13.355724,54.248725],[13.417735,54.266059],[13.407237,54.228217],[13.311534,54.251125],[13.335216,54.283515],[13.267914,54.256496],[13.204845,54.297187],[13.149669,54.290269],[13.177501,54.310207],[13.115489,54.33808],[13.148936,54.377265],[13.266856,54.385891],[13.211599,54.431098],[13.156993,54.426825],[13.273123,54.482123],[13.143403,54.542914],[13.259532,54.553778],[13.297862,54.51968],[13.301036,54.55036],[13.369395,54.58515],[13.348888,54.523668],[13.3838,54.531887],[13.37672,54.564643],[13.430675,54.492743],[13.507091,54.488267],[13.520763,54.570787],[13.441417,54.557196],[13.369151,54.612128],[13.253266,54.564643],[13.293468,54.642279],[13.230968,54.653306],[13.390798,54.688178],[13.445079,54.68008],[13.382986,54.636379],[13.424571,54.58515],[13.670665,54.56623],[13.677257,54.540473],[13.57545,54.471869],[13.609548,54.413804]]],[[[8.332367,54.693793],[8.382335,54.639146],[8.401378,54.632961],[8.353689,54.618964],[8.291515,54.66706],[8.360362,54.71483],[8.332367,54.693793]]],[[[8.497569,54.756415],[8.593761,54.721666],[8.552094,54.685004],[8.394542,54.71483],[8.497569,54.756415]]],[[[8.36199,54.986802],[8.354503,54.912746],[8.388357,54.894232],[8.65447,54.893622],[8.30714,54.865383],[8.284434,54.742377],[8.298025,54.912543],[8.373709,55.03498],[8.415782,55.065334],[8.46339,55.050686],[8.394542,55.04385],[8.430431,55.030015],[8.36199,54.986802]]],[[[8.595876,54.513658],[8.698904,54.55858],[8.700938,54.547756],[8.66977,54.501899],[8.618826,54.492621],[8.595876,54.513658]]],[[[7.894542,54.194648],[7.899181,54.178168],[7.879893,54.193915],[7.894542,54.194648]]],[[[7.917654,54.186998],[7.929861,54.195299],[7.933442,54.189887],[7.917654,54.186998]]]]}},{"type":"Feature","properties":{"name":"Slovakia","iso3":"SVK"},"geometry":{"type":"Polygon","coordinates":[[[22.539637,49.0722],[22.520516,48.992928],[22.448996,48.971431],[22.368898,48.856451],[22.310297,48.681681],[22.138731,48.569595],[22.13284,48.404798],[22.09646,48.379425],[21.727697,48.340901],[21.591684,48.49301],[21.424563,48.561275],[21.32183,48.54758],[21.261782,48.50319],[21.109336,48.489109],[20.800311,48.569233],[20.51051,48.533783],[20.324268,48.279948],[20.134512,48.246669],[20.105263,48.202795],[19.928633,48.130087],[19.776084,48.149517],[19.756551,48.200315],[19.623226,48.227006],[19.513982,48.203958],[19.481735,48.111328],[19.428199,48.085852],[18.838467,48.040015],[18.743176,47.971052],[18.748757,47.870723],[18.816453,47.83256],[18.692843,47.777963],[17.741997,47.76538],[17.572601,47.829536],[17.337887,47.998725],[17.069686,48.035674],[17.080228,48.097608],[16.98194,48.161299],[16.954345,48.273127],[16.84448,48.365602],[16.864944,48.458077],[16.946903,48.539726],[16.947523,48.623157],[17.025348,48.746328],[17.167458,48.859758],[17.535084,48.812991],[17.727217,48.86291],[17.795533,48.920581],[17.878733,48.933552],[17.914079,49.010498],[18.075516,49.047188],[18.160576,49.2587],[18.385162,49.342261],[18.387642,49.389751],[18.514663,49.440601],[18.535643,49.481684],[18.932208,49.504318],[18.961147,49.492794],[18.962284,49.389183],[19.141705,49.394195],[19.234102,49.507212],[19.339522,49.528761],[19.443392,49.60178],[19.505197,49.563384],[19.55677,49.453882],[19.634801,49.441324],[19.627044,49.401868],[19.769263,49.39311],[19.779702,49.293375],[19.808641,49.270895],[19.747766,49.205887],[19.785903,49.188162],[19.937935,49.22511],[20.050486,49.173227],[20.135856,49.308878],[20.284374,49.338643],[20.317653,49.391612],[20.437543,49.402515],[20.543996,49.370838],[20.689517,49.4005],[20.778297,49.331202],[20.91896,49.290326],[21.072543,49.357195],[21.033269,49.399673],[21.053526,49.414453],[21.194086,49.400603],[21.260542,49.449438],[21.42787,49.409802],[21.6199,49.423341],[21.757566,49.348927],[21.819577,49.377246],[21.964478,49.308568],[22.040752,49.197463],[22.539637,49.0722]]]}},{"type":"Feature","properties":{"name":"Poland","iso3":"POL"},"geometry":{"type":"Polygon","coordinates":[[[18.833196,49.510261],[18.788444,49.668597],[18.617706,49.713866],[18.566753,49.804765],[18.593831,49.852204],[18.559208,49.907187],[18.481797,49.896645],[18.368832,49.932044],[18.292454,49.907808],[18.002446,50.046765],[18.032418,50.00284],[17.839355,49.973643],[17.763287,50.025216],[17.731971,50.094876],[17.632753,50.106348],[17.589448,50.163244],[17.747578,50.217504],[17.707994,50.311039],[17.629549,50.262101],[17.469352,50.265563],[17.424187,50.240552],[17.388013,50.272643],[17.341711,50.259724],[17.337474,50.313002],[17.210866,50.336412],[17.187612,50.378476],[16.892953,50.432943],[16.865874,50.408449],[17.014806,50.218486],[16.960339,50.231974],[16.817712,50.186757],[16.660616,50.093016],[16.566668,50.142212],[16.535042,50.207738],[16.437787,50.297965],[16.371021,50.318377],[16.343736,50.36995],[16.2625,50.36442],[16.199559,50.406278],[16.211237,50.451289],[16.352624,50.492785],[16.425901,50.567561],[16.331644,50.644042],[16.232011,50.660888],[16.175477,50.624095],[16.086491,50.64678],[15.982001,50.603631],[15.998641,50.635567],[15.971459,50.678613],[15.848159,50.675151],[15.792245,50.742692],[15.684345,50.731426],[15.441775,50.800208],[15.356096,50.775455],[15.341006,50.83173],[15.25605,50.899892],[15.269796,50.952653],[15.144429,51.011564],[15.107946,50.981024],[15.003973,51.020685],[14.960978,50.992651],[14.996635,50.959216],[14.982062,50.859067],[14.810393,50.858447],[14.955293,51.064042],[15.019476,51.271678],[14.963768,51.328393],[14.945061,51.449186],[14.710037,51.530241],[14.743937,51.606644],[14.732465,51.658347],[14.585807,51.803893],[14.687093,51.911897],[14.699082,51.992512],[14.761403,52.076667],[14.686369,52.121032],[14.712414,52.235908],[14.584153,52.291228],[14.545396,52.382153],[14.539815,52.421866],[14.632316,52.496745],[14.609061,52.517803],[14.644821,52.576921],[14.382202,52.738152],[14.123923,52.850651],[14.164954,52.895661],[14.14449,52.959921],[14.343341,53.048624],[14.38954,53.131668],[14.380651,53.189855],[14.44163,53.251841],[14.403286,53.27879],[14.359878,53.444077],[14.30417,53.508518],[14.263901,53.699976],[14.304861,53.712551],[14.2942,53.749091],[14.531016,53.657782],[14.590587,53.598375],[14.62379,53.652818],[14.575938,53.659654],[14.544932,53.704047],[14.575938,53.769517],[14.62379,53.769517],[14.630626,53.851508],[14.587087,53.812649],[14.575857,53.854804],[14.441173,53.869615],[14.431895,53.906155],[14.363048,53.879381],[14.417654,53.865139],[14.405284,53.844184],[14.318858,53.818183],[14.175289,53.906478],[14.210053,53.938463],[14.406749,53.92182],[14.781912,54.034613],[15.859711,54.249986],[16.131521,54.283515],[16.069347,54.263007],[16.17921,54.263007],[16.21518,54.299628],[16.137706,54.290269],[16.275401,54.358588],[16.231781,54.322577],[16.323904,54.349921],[16.32488,54.373114],[16.281586,54.358588],[16.439789,54.488267],[16.473399,54.482123],[16.446056,54.488267],[16.466563,54.512152],[16.569591,54.557196],[16.939952,54.606024],[17.035818,54.66706],[17.337413,54.74901],[18.152354,54.838324],[18.339529,54.833482],[18.75172,54.69009],[18.835297,54.603095],[18.707774,54.701239],[18.456309,54.787665],[18.413097,54.746527],[18.474457,54.687567],[18.475922,54.640082],[18.52296,54.646552],[18.588064,54.433661],[18.885916,54.350165],[19.377208,54.377631],[19.609548,54.456732],[22.698387,54.342937],[22.837603,54.400918],[22.96266,54.381695],[23.041622,54.340974],[23.050096,54.294827],[23.117069,54.303457],[23.316023,54.236277],[23.449039,54.154938],[23.496167,54.044558],[23.45865,53.981616],[23.590942,53.611251],[23.800645,53.242462],[23.893663,53.151951],[23.859349,53.067976],[23.911336,53.00506],[23.922498,52.742596],[23.868961,52.670042],[23.392298,52.509638],[23.165645,52.289393],[23.189726,52.240533],[23.487693,52.181622],[23.512497,52.124442],[23.637451,52.084471],[23.676415,51.994088],[23.594559,51.843297],[23.617504,51.786504],[23.552288,51.736636],[23.5434,51.592743],[23.614817,51.49722],[23.662772,51.480192],[23.648716,51.453966],[23.697602,51.404435],[23.635177,51.304699],[23.863587,51.148274],[23.911749,51.00681],[23.979342,50.937512],[24.143156,50.856432],[23.957638,50.808011],[24.025851,50.767032],[24.026884,50.728016],[24.081041,50.712978],[24.107706,50.540844],[24.010658,50.492785],[23.981306,50.40478],[23.682203,50.368245],[23.644169,50.312692],[23.101463,49.957107],[22.665831,49.567363],[22.640922,49.528761],[22.719781,49.382982],[22.737764,49.275391],[22.681747,49.161238],[22.853416,49.084757],[22.855276,48.994013],[22.755334,49.044708],[22.390085,49.093025],[22.215936,49.139999],[22.197952,49.171987],[22.040752,49.197463],[21.928408,49.330788],[21.819577,49.377246],[21.757566,49.348927],[21.601193,49.426493],[21.42787,49.409802],[21.260542,49.449438],[21.194086,49.400603],[21.068822,49.419207],[21.033269,49.399673],[21.072543,49.357195],[20.91896,49.290326],[20.778297,49.331202],[20.689517,49.4005],[20.543996,49.370838],[20.437543,49.402515],[20.317653,49.391612],[20.284374,49.338643],[20.135856,49.308878],[20.050486,49.173227],[19.937935,49.22511],[19.831998,49.185888],[19.760685,49.194208],[19.751797,49.219064],[19.808641,49.270895],[19.779702,49.293375],[19.769263,49.39311],[19.627044,49.401868],[19.634801,49.441324],[19.55677,49.453882],[19.457344,49.598059],[19.234102,49.507212],[19.141705,49.394195],[18.962284,49.389183],[18.961147,49.492794],[18.833196,49.510261]]]}}]}